{"type": "FeatureCollection", "features": [ {"type": "Feature", "properties": {"norad_id": 39574, "name": "GPM-CORE", "group": "resource", "lat": -60.92571924251986, "lon": 102.43933786321068, "alt_km": 429.35308510735103, "timestamp": "2025-12-08T23:34:03.626571+00:00", "meta": {"OBJECT_NAME": "GPM-CORE", "OBJECT_ID": "2014-009C", "EPOCH": "2025-12-08T14:42:11.761632", "MEAN_MOTION": 15.454137, "ECCENTRICITY": 0.00105083, "INCLINATION": 64.9738, "RA_OF_ASC_NODE": 226.508, "ARG_OF_PERICENTER": 269.735, "MEAN_ANOMALY": 90.2587, "EPHEMERIS_TYPE": 0, "CLASSIFICATION_TYPE": "U", "NORAD_CAT_ID": 39574, "ELEMENT_SET_NO": 999, "REV_AT_EPOCH": 66837, "BSTAR": 0.00038841303, "MEAN_MOTION_DOT": 0.0001851, "MEAN_MOTION_DDOT": 0}, "tle": {"line1": "1 39574U 14009C   25342.61263613  .00018510  00000+0  38841-3 0  9997", "line2": "2 39574  64.9738 226.5080 0010508 269.7350  90.2587 15.45413700668377"}}, "geometry": {"type": "Point", "coordinates": [102.43933786321068, -60.92571924251986]}}, {"type": "Feature", "properties": {"norad_id": 39634, "name": "SENTINEL-1A", "group": "resource", "lat": -15.704095469844749, "lon": 165.96097332659207, "alt_km": 700.8043543082085, "timestamp": "2025-12-08T23:34:03.626581+00:00", "meta": {"OBJECT_NAME": "SENTINEL-1A", "OBJECT_ID": "2014-016A", "EPOCH": "2025-12-08T14:26:41.737344", "MEAN_MOTION": 14.59200468, "ECCENTRICITY": 0.00012474, "INCLINATION": 98.1803, "RA_OF_ASC_NODE": 347.9044, "ARG_OF_PERICENTER": 89.3522, "MEAN_ANOMALY": 270.7821, "EPHEMERIS_TYPE": 0, "CLASSIFICATION_TYPE": "U", "NORAD_CAT_ID": 39634, "ELEMENT_SET_NO": 999, "REV_AT_EPOCH": 62222, "BSTAR": 9.4714836e-05, "MEAN_MOTION_DOT": 4.01e-06, "MEAN_MOTION_DDOT": 0}, "tle": {"line1": "1 39634U 14016A   25342.60187196  .00000401  00000+0  94715-4 0  9995", "line2": "2 39634  98.1803 347.9044 0001247  89.3522 270.7821 14.59200468622220"}}, "geometry": {"type": "Point", "coordinates": [165.96097332659207, -15.704095469844749]}}, {"type": "Feature", "properties": {"norad_id": 39731, "name": "KAZEOSAT 1", "group": "resource", "lat": 41.1069439330564, "lon": 47.616066139602836, "alt_km": 747.986689945048, "timestamp": "2025-12-08T23:34:03.626591+00:00", "meta": {"OBJECT_NAME": "KAZEOSAT 1", "OBJECT_ID": "2014-024A", "EPOCH": "2025-12-08T15:02:56.193792", "MEAN_MOTION": 14.42059459, "ECCENTRICITY": 0.00010855, "INCLINATION": 98.344, "RA_OF_ASC_NODE": 54.6267, "ARG_OF_PERICENTER": 100.0193, "MEAN_ANOMALY": 260.1119, "EPHEMERIS_TYPE": 0, "CLASSIFICATION_TYPE": "U", "NORAD_CAT_ID": 39731, "ELEMENT_SET_NO": 999, "REV_AT_EPOCH": 61109, "BSTAR": 0.00017070984, "MEAN_MOTION_DOT": 5.18e-06, "MEAN_MOTION_DDOT": 0}, "tle": {"line1": "1 39731U 14024A   25342.62703928  .00000518  00000+0  17071-3 0  9999", "line2": "2 39731  98.3440  54.6267 0001085 100.0193 260.1119 14.42059459611091"}}, "geometry": {"type": "Point", "coordinates": [47.616066139602836, 41.1069439330564]}}, {"type": "Feature", "properties": {"norad_id": 39766, "name": "ALOS-2", "group": "resource", "lat": 38.75979580191155, "lon": -95.69865612337036, "alt_km": 627.3614656940144, "timestamp": "2025-12-08T23:34:03.626602+00:00", "meta": {"OBJECT_NAME": "ALOS-2", "OBJECT_ID": "2014-029A", "EPOCH": "2025-12-08T19:41:15.006912", "MEAN_MOTION": 14.79457487, "ECCENTRICITY": 0.0001453, "INCLINATION": 97.923, "RA_OF_ASC_NODE": 77.7223, "ARG_OF_PERICENTER": 101.1392, "MEAN_ANOMALY": 258.9983, "EPHEMERIS_TYPE": 0, "CLASSIFICATION_TYPE": "U", "NORAD_CAT_ID": 39766, "ELEMENT_SET_NO": 999, "REV_AT_EPOCH": 62343, "BSTAR": 0.0004627, "MEAN_MOTION_DOT": 3.404e-05, "MEAN_MOTION_DDOT": 0}, "tle": {"line1": "1 39766U 14029A   25342.82031258  .00003404  00000+0  46270-3 0  9994", "line2": "2 39766  97.9230  77.7223 0001453 101.1392 258.9983 14.79457487623439"}}, "geometry": {"type": "Point", "coordinates": [-95.69865612337036, 38.75979580191155]}}, {"type": "Feature", "properties": {"norad_id": 40010, "name": "KAZEOSAT 2", "group": "resource", "lat": -25.81861989705409, "lon": -168.82962334631245, "alt_km": 620.8850366899633, "timestamp": "2025-12-08T23:34:03.626612+00:00", "meta": {"OBJECT_NAME": "KAZEOSAT 2", "OBJECT_ID": "2014-033A", "EPOCH": "2025-12-08T13:58:58.599552", "MEAN_MOTION": 14.85158516, "ECCENTRICITY": 0.00074951, "INCLINATION": 97.5514, "RA_OF_ASC_NODE": 187.1119, "ARG_OF_PERICENTER": 221.7196, "MEAN_ANOMALY": 138.3449, "EPHEMERIS_TYPE": 0, "CLASSIFICATION_TYPE": "U", "NORAD_CAT_ID": 40010, "ELEMENT_SET_NO": 999, "REV_AT_EPOCH": 62066, "BSTAR": 0.00017593147, "MEAN_MOTION_DOT": 1.457e-05, "MEAN_MOTION_DDOT": 0}, "tle": {"line1": "1 40010U 14033A   25342.58262268  .00001457  00000+0  17593-3 0  9995", "line2": "2 40010  97.5514 187.1119 0007495 221.7196 138.3449 14.85158516620665"}}, "geometry": {"type": "Point", "coordinates": [-168.82962334631245, -25.81861989705409]}}, {"type": "Feature", "properties": {"norad_id": 40011, "name": "HODOYOSHI-4", "group": "resource", "lat": 30.19137911335184, "lon": 167.63051626317016, "alt_km": 620.3434838177782, "timestamp": "2025-12-08T23:34:03.626623+00:00", "meta": {"OBJECT_NAME": "HODOYOSHI-4", "OBJECT_ID": "2014-033B", "EPOCH": "2025-12-08T13:44:36.726720", "MEAN_MOTION": 14.87459593, "ECCENTRICITY": 0.00229201, "INCLINATION": 97.5416, "RA_OF_ASC_NODE": 171.6622, "ARG_OF_PERICENTER": 214.7563, "MEAN_ANOMALY": 145.2158, "EPHEMERIS_TYPE": 0, "CLASSIFICATION_TYPE": "U", "NORAD_CAT_ID": 40011, "ELEMENT_SET_NO": 999, "REV_AT_EPOCH": 62046, "BSTAR": 0.00034109649, "MEAN_MOTION_DOT": 3.052e-05, "MEAN_MOTION_DDOT": 0}, "tle": {"line1": "1 40011U 14033B   25342.57264730  .00003052  00000+0  34110-3 0  9998", "line2": "2 40011  97.5416 171.6622 0022920 214.7563 145.2158 14.87459593620467"}}, "geometry": {"type": "Point", "coordinates": [167.63051626317016, 30.19137911335184]}}, {"type": "Feature", "properties": {"norad_id": 40013, "name": "DEIMOS-2", "group": "resource", "lat": 65.2029043678982, "lon": 55.720141490232606, "alt_km": 581.7591039580357, "timestamp": "2025-12-08T23:34:03.626633+00:00", "meta": {"OBJECT_NAME": "DEIMOS-2", "OBJECT_ID": "2014-033D", "EPOCH": "2025-12-08T15:01:04.107072", "MEAN_MOTION": 14.92948213, "ECCENTRICITY": 9.689e-05, "INCLINATION": 97.6069, "RA_OF_ASC_NODE": 218.5617, "ARG_OF_PERICENTER": 95.3799, "MEAN_ANOMALY": 264.7531, "EPHEMERIS_TYPE": 0, "CLASSIFICATION_TYPE": "U", "NORAD_CAT_ID": 40013, "ELEMENT_SET_NO": 999, "REV_AT_EPOCH": 60928, "BSTAR": 0.0003821277, "MEAN_MOTION_DOT": 3.913e-05, "MEAN_MOTION_DDOT": 0}, "tle": {"line1": "1 40013U 14033D   25342.62574198  .00003913  00000+0  38213-3 0  9992", "line2": "2 40013  97.6069 218.5617 0000968  95.3799 264.7531 14.92948213609288"}}, "geometry": {"type": "Point", "coordinates": [55.720141490232606, 65.2029043678982]}}, {"type": "Feature", "properties": {"norad_id": 40015, "name": "HODOYOSHI-3", "group": "resource", "lat": -7.6381393370121025, "lon": 150.00906812520407, "alt_km": 618.7316286750056, "timestamp": "2025-12-08T23:34:03.626643+00:00", "meta": {"OBJECT_NAME": "HODOYOSHI-3", "OBJECT_ID": "2014-033F", "EPOCH": "2025-12-08T10:39:47.457792", "MEAN_MOTION": 14.84784577, "ECCENTRICITY": 0.00318196, "INCLINATION": 97.6198, "RA_OF_ASC_NODE": 148.4663, "ARG_OF_PERICENTER": 262.7037, "MEAN_ANOMALY": 97.0561, "EPHEMERIS_TYPE": 0, "CLASSIFICATION_TYPE": "U", "NORAD_CAT_ID": 40015, "ELEMENT_SET_NO": 999, "REV_AT_EPOCH": 61931, "BSTAR": 0.00034897393, "MEAN_MOTION_DOT": 2.935e-05, "MEAN_MOTION_DDOT": 0}, "tle": {"line1": "1 40015U 14033F   25342.44429928  .00002935  00000+0  34897-3 0  9991", "line2": "2 40015  97.6198 148.4663 0031819 262.7037  97.0561 14.84784577619316"}}, "geometry": {"type": "Point", "coordinates": [150.00906812520407, -7.6381393370121025]}}, {"type": "Feature", "properties": {"norad_id": 40053, "name": "SPOT 7", "group": "resource", "lat": 39.17913757426396, "lon": 38.486401148022566, "alt_km": 687.1970268475961, "timestamp": "2025-12-08T23:34:03.626653+00:00", "meta": {"OBJECT_NAME": "SPOT 7", "OBJECT_ID": "2014-034A", "EPOCH": "2025-12-08T15:10:00.451488", "MEAN_MOTION": 14.60726769, "ECCENTRICITY": 0.00015362, "INCLINATION": 98.0912, "RA_OF_ASC_NODE": 44.8021, "ARG_OF_PERICENTER": 94.0308, "MEAN_ANOMALY": 266.1069, "EPHEMERIS_TYPE": 0, "CLASSIFICATION_TYPE": "U", "NORAD_CAT_ID": 40053, "ELEMENT_SET_NO": 999, "REV_AT_EPOCH": 60931, "BSTAR": 0.00024832781, "MEAN_MOTION_DOT": 1.165e-05, "MEAN_MOTION_DDOT": 0}, "tle": {"line1": "1 40053U 14034A   25342.63194967  .00001165  00000+0  24833-3 0  9990", "line2": "2 40053  98.0912  44.8021 0001536  94.0308 266.1069 14.60726769609318"}}, "geometry": {"type": "Point", "coordinates": [38.486401148022566, 39.17913757426396]}}, {"type": "Feature", "properties": {"norad_id": 40072, "name": "SKYSAT-B", "group": "resource", "lat": -24.33623399378519, "lon": -69.69672512614366, "alt_km": 615.9642830881558, "timestamp": "2025-12-08T23:34:03.626664+00:00", "meta": {"OBJECT_NAME": "SKYSAT-B", "OBJECT_ID": "2014-037D", "EPOCH": "2025-12-08T13:59:25.514880", "MEAN_MOTION": 14.87304035, "ECCENTRICITY": 0.00058186, "INCLINATION": 98.3607, "RA_OF_ASC_NODE": 286.0694, "ARG_OF_PERICENTER": 162.6374, "MEAN_ANOMALY": 197.5041, "EPHEMERIS_TYPE": 0, "CLASSIFICATION_TYPE": "U", "NORAD_CAT_ID": 40072, "ELEMENT_SET_NO": 999, "REV_AT_EPOCH": 61762, "BSTAR": 0.00038681127, "MEAN_MOTION_DOT": 3.431e-05, "MEAN_MOTION_DDOT": 0}, "tle": {"line1": "1 40072U 14037D   25342.58293420  .00003431  00000+0  38681-3 0  9996", "line2": "2 40072  98.3607 286.0694 0005818 162.6374 197.5041 14.87304035617628"}}, "geometry": {"type": "Point", "coordinates": [-69.69672512614366, -24.33623399378519]}}]}